{
  "type": "FeatureCollection",
  "features": [
    {
      "type": "Feature",
      "properties": {
        "event_id": "demo_event_0",
        "first_seen": "2026-09-16 10:58:33.618815",
        "sensors": [
          "MODIS",
          "VIIRS"
        ],
        "status": "mapped",
        "source": "demo_fixture"
      },
      "geometry": {
        "type": "Point",
        "coordinates": [
          92.0,
          56.0
        ]
      }
    },
    {
      "type": "Feature",
      "properties": {
        "event_id": "demo_event_1",
        "first_seen": "2026-09-16 10:58:33.618829",
        "sensors": [
          "MODIS",
          "VIIRS"
        ],
        "status": "mapped",
        "source": "demo_fixture"
      },
      "geometry": {
        "type": "Point",
        "coordinates": [
          92.0,
          56.0
        ]
      }
    },
    {
      "type": "Feature",
      "properties": {
        "event_id": "demo_event_2",
        "first_seen": "2026-09-16 10:58:33.618833",
        "sensors": [
          "MODIS",
          "VIIRS"
        ],
        "status": "mapped",
        "source": "demo_fixture"
      },
      "geometry": {
        "type": "Point",
        "coordinates": [
          92.0,
          56.0
        ]
      }
    },
    {
      "type": "Feature",
      "properties": {
        "event_id": "demo_event_3",
        "first_seen": "2026-09-16 10:58:33.618835",
        "sensors": [
          "MODIS",
          "VIIRS"
        ],
        "status": "mapped",
        "source": "demo_fixture"
      },
      "geometry": {
        "type": "Point",
        "coordinates": [
          92.0,
          56.0
        ]
      }
    },
    {
      "type": "Feature",
      "properties": {
        "event_id": "demo_event_4",
        "first_seen": "2026-09-16 10:58:33.618838",
        "sensors": [
          "MODIS",
          "VIIRS"
        ],
        "status": "mapped",
        "source": "demo_fixture"
      },
      "geometry": {
        "type": "Point",
        "coordinates": [
          92.0,
          56.0
        ]
      }
    },
    {
      "type": "Feature",
      "properties": {
        "event_id": "demo_event_5",
        "first_seen": "2026-09-16 10:58:33.618841",
        "sensors": [
          "MODIS",
          "VIIRS"
        ],
        "status": "mapped",
        "source": "demo_fixture"
      },
      "geometry": {
        "type": "Point",
        "coordinates": [
          92.0,
          56.0
        ]
      }
    },
    {
      "type": "Feature",
      "properties": {
        "event_id": "demo_event_6",
        "first_seen": "2026-09-16 10:58:33.618843",
        "sensors": [
          "MODIS",
          "VIIRS"
        ],
        "status": "mapped",
        "source": "demo_fixture"
      },
      "geometry": {
        "type": "Point",
        "coordinates": [
          92.0,
          56.0
        ]
      }
    }
  ]
}